NORAD_CAT_ID,OBJECT_NAME,OBJECT_TYPE,EPOCH,MEAN_MOTION,ECCENTRICITY,INCLINATION,RA_OF_ASC_NODE,ARG_OF_PERICENTER,MEAN_ANOMALY,BSTAR,MEAN_MOTION_DOT,MEAN_MOTION_DDOT,TLE_LINE0,TLE_LINE1,TLE_LINE2,SEMIMAJOR_AXIS,PERIOD,APOGEE,PERIGEE,DECAYED
51716.0,STARLINK-3543,PAYLOAD,2022-06-12 22:00:00,15.08808638,0.0001759,53.2177,340.3184,45.4137,192.5645,0.0027133,0.00043122,0.0,0 STARLINK-3543,1 51716U 22016C   22163.91667824  .00043122  00000-0  27133-2 0  9998,2 51716  53.2177 340.3184 0001759  45.4137 192.5645 15.08808638  1309,6917.976,95.44,541.058,538.624,0.0
51716.0,STARLINK-3543,PAYLOAD,2022-06-13 06:00:02,15.08833396,0.0001602,53.2175,338.82,49.3072,200.3201,0.00085928,0.00013411,0.0,0 STARLINK-3543,1 51716U 22016C   22164.25002315  .00013411  00000-0  85928-3 0  9999,2 51716  53.2175 338.8200 0001602  49.3072 200.3201 15.08833396 18354,6917.901,95.438,540.874,538.6569999999998,0.0
51716.0,STARLINK-3543,PAYLOAD,2022-06-13 14:00:01,15.08868321,0.0001618,53.2176,337.324,51.672,209.4773,-0.0019154,-0.00030666,0.0,0 STARLINK-3543,1 51716U 22016C   22164.58334491 -.00030666  00000-0 -19154-2 0  9998,2 51716  53.2176 337.3240 0001618  51.6720 209.4773 15.08868321  1303,6917.794,95.436,540.778,538.54,0.0
51716.0,STARLINK-3543,PAYLOAD,2022-06-13 22:00:00,15.08814126,0.0001744,53.2176,335.8289,42.9486,229.8259,0.0027724,0.0004408,0.0,0 STARLINK-3543,1 51716U 22016C   22164.91667824  .00044080  00000-0  27724-2 0  9999,2 51716  53.2176 335.8289 0001744  42.9486 229.8259 15.08814126  1300,6917.959,95.439,541.031,538.618,0.0
51716.0,STARLINK-3543,PAYLOAD,2022-06-14 14:00:01,15.08841265,0.0001714,53.2178,332.8346,50.5763,245.3829,-0.00094384,-0.00015278,0.0,0 STARLINK-3543,1 51716U 22016C   22165.58334491 -.00015278  00000-0 -94384-3 0  9990,2 51716  53.2178 332.8346 0001714  50.5763 245.3829 15.08841265 18558,6917.877,95.437,540.927,538.556,0.0
51716.0,STARLINK-3543,PAYLOAD,2022-06-14 22:00:00,15.08823517,0.0001832,53.2178,331.3395,44.0063,263.5425,0.0010616,0.0001664,0.0,0 STARLINK-3543,1 51716U 22016C   22165.91667824  .00016640  00000-0  10616-2 0  9993,2 51716  53.2178 331.3395 0001832  44.0063 263.5425 15.08823517  1307,6917.931,95.439,541.063,538.528,0.0
51716.0,STARLINK-3543,PAYLOAD,2022-06-15 14:00:01,15.08842705,0.0001716,53.2185,328.3455,47.7057,282.9942,-0.00093406,-0.00015124,0.0,0 STARLINK-3543,1 51716U 22016C   22166.58334491 -.00015124  00000-0 -93406-3 0  9995,2 51716  53.2185 328.3455 0001716  47.7057 282.9942 15.08842705 18703,6917.871999999999,95.437,540.924,538.55,0.0
51716.0,STARLINK-3543,PAYLOAD,2022-06-15 22:00:00,15.08824993,0.0001866,53.2184,326.8504,42.3235,299.9748,0.0030805,0.0004906,0.0,0 STARLINK-3543,1 51716U 22016C   22166.91667824  .00049060  00000-0  30805-2 0  9998,2 51716  53.2184 326.8504 0001866  42.3235 299.9748 15.08824993  1304,6917.926,95.439,541.082,538.5,0.0
51716.0,STARLINK-3543,PAYLOAD,2022-06-16 02:00:01,15.08877712,0.0001824,53.2185,326.1012,44.9219,123.1663,-0.0034025999999999,-0.0005409,0.0,0 STARLINK-3543,1 51716U 22016C   22167.08334491 -.00054090  00000-0 -34026-2 0  9998,2 51716  53.2185 326.1012 0001824  44.9219 123.1663 15.08877712  1307,6917.765,95.435,540.8919999999998,538.368,0.0
51716.0,STARLINK-3543,PAYLOAD,2022-06-19 14:00:01,15.08873317,0.0001726,53.2181,310.3911,47.0605,62.7247,-0.0038367,-0.00060889,0.0,0 STARLINK-3543,1 51716U 22016C   22170.58334491 -.00060889  00000-0 -38367-2 0  9992,2 51716  53.2181 310.3911 0001726  47.0605  62.7247 15.08873317  1303,6917.779,95.435,540.8380000000002,538.45,0.0
51716.0,STARLINK-3543,PAYLOAD,2022-06-19 20:00:01,15.08816779,0.0001771999999999,53.2178,309.2696,42.1389,346.3672,0.0027936,0.00044425,0.0,0 STARLINK-3543,1 51716U 22016C   22170.83334491  .00044425  00000-0  27936-2 0  9996,2 51716  53.2178 309.2696 0001772  42.1389 346.3672 15.08816779 19358,6917.951,95.439,541.0419999999998,538.591,0.0
51716.0,STARLINK-3543,PAYLOAD,2022-06-19 22:00:00,15.08829675,0.0001769,53.2175,308.8952,41.0245,80.3745,0.0016097,0.00025416,0.0,0 STARLINK-3543,1 51716U 22016C   22170.91667824  .00025416  00000-0  16097-2 0  9999,2 51716  53.2175 308.8952 0001769  41.0245  80.3745 15.08829675  1301,6917.9119999999975,95.438,541.001,538.553,0.0
51716.0,STARLINK-3543,PAYLOAD,2022-06-20 14:00:01,15.08851878,0.0001773,53.2174,305.9022,47.31,97.278,-0.0028021,-0.00044622,0.0,0 STARLINK-3543,1 51716U 22016C   22171.58334491 -.00044622  00000-0 -28021-2 0  9996,2 51716  53.2174 305.9022 0001773  47.3100  97.2780 15.08851878  1306,6917.844,95.437,540.936,538.4830000000002,0.0
51716.0,STARLINK-3543,PAYLOAD,2022-06-20 22:00:00,15.08845924,0.0001843,53.217,304.4061,43.0728,113.1044,-0.0017768,-0.0002846,0.0,0 STARLINK-3543,1 51716U 22016C   22171.91667824 -.00028460  00000-0 -17768-2 0  9990,2 51716  53.2170 304.4061 0001843  43.0728 113.1044 15.08845924 19514,6917.861999999999,95.437,541.002,538.452,0.0
51716.0,STARLINK-3543,PAYLOAD,2022-06-21 14:00:01,15.08831153,0.0001781999999999,53.2171,301.4132,44.9856,134.3481,-0.00074357,-0.000121,0.0,0 STARLINK-3543,1 51716U 22016C   22172.58334491 -.00012100  00000-0 -74357-3 0  9997,2 51716  53.2171 301.4132 0001782  44.9856 134.3481 15.08831153  1302,6917.906999999997,95.438,541.005,538.54,0.0
51716.0,STARLINK-3543,PAYLOAD,2022-06-21 22:00:00,15.08839872,0.0001852,53.2169,299.9169,41.6726,149.24200000000005,0.00029671,4.437e-05,0.0,0 STARLINK-3543,1 51716U 22016C   22172.91667824  .00004437  00000-0  29671-3 0  9994,2 51716  53.2169 299.9169 0001852  41.6726 149.2420 15.08839872  1302,6917.880999999999,95.438,541.0269999999998,538.465,0.0
51716.0,STARLINK-3543,PAYLOAD,2022-06-22 00:00:02,15.08854799,0.0001802,53.217,299.5422,42.7871,241.0852,-0.001628,-0.00026115,0.0,0 STARLINK-3543,1 51716U 22016C   22173.00002315 -.00026115  00000-0 -16280-2 0  9993,2 51716  53.2170 299.5422 0001802  42.7871 241.0852 15.08854799 19674,6917.835,95.437,540.947,538.4540000000002,0.0
51716.0,STARLINK-3543,PAYLOAD,2022-06-22 14:00:01,15.08829237,0.000196,53.2172,296.9240000000001,47.1637,166.9449,-0.00063085,-0.00010311,0.0,0 STARLINK-3543,1 51716U 22016C   22173.58334491 -.00010311  00000-0 -63085-3 0  9996,2 51716  53.2172 296.9240 0001960  47.1637 166.9449 15.08829237  1306,6917.913000000001,95.438,541.134,538.422,0.0
51716.0,STARLINK-3543,PAYLOAD,2022-06-22 22:00:00,15.08846173,0.0001985,53.2172,295.4275,44.4078,181.2811,-0.00028457,-4.815e-05,0.0,0 STARLINK-3543,1 51716U 22016C   22173.91667824 -.00004815  00000-0 -28457-3 0  9998,2 51716  53.2172 295.4275 0001985  44.4078 181.2811 15.08846173  1305,6917.861999999999,95.437,541.1,538.3530000000002,0.0
51716.0,STARLINK-3543,PAYLOAD,2022-06-23 00:00:02,15.08856244,0.000194,53.2173,295.0529,45.3104,273.3385,-0.0016055999999999,-0.00025762,0.0,0 STARLINK-3543,1 51716U 22016C   22174.00002315 -.00025762  00000-0 -16056-2 0  9992,2 51716  53.2173 295.0529 0001940  45.3104 273.3385 15.08856244 19820,6917.831,95.437,541.038,538.354,0.0
51716.0,STARLINK-3543,PAYLOAD,2022-06-23 14:00:01,15.08850678,0.0001957,53.2177,292.4347,45.1879,203.7051,-0.0023538,-0.00037566,0.0,0 STARLINK-3543,1 51716U 22016C   22174.58334491 -.00037566  00000-0 -23538-2 0  9996,2 51716  53.2177 292.4347 0001957  45.1879 203.7051 15.08850678  1304,6917.848000000001,95.437,541.067,538.359,0.0
51716.0,STARLINK-3543,PAYLOAD,2022-06-23 22:00:00,15.08860679,0.0001884,53.2177,290.9381,41.3334,219.1476,-0.0038559,-0.0006117,0.0,0 STARLINK-3543,1 51716U 22016C   22174.91667824 -.00061170  00000-0 -38559-2 0  9999,2 51716  53.2177 290.9381 0001884  41.3334 219.1476 15.08860679 19963,6917.816999999999,95.436,540.985,538.379,0.0
51716.0,STARLINK-3543,PAYLOAD,2022-06-24 14:00:01,15.08859011,0.0001928,53.2181,287.9456,44.3119,239.3642,-0.0019847,-0.00031753,0.0,0 STARLINK-3543,1 51716U 22016C   22175.58334491 -.00031753  00000-0 -19847-2 0  9997,2 51716  53.2181 287.9456 0001928  44.3119 239.3642 15.08859011 20060,6917.821999999999,95.436,541.021,538.354,0.0
51716.0,STARLINK-3543,PAYLOAD,2022-06-24 22:00:01,15.08850523,0.0001851,53.218,286.4488,41.1968,254.1459,-0.0026193,-0.00041746,0.0,0 STARLINK-3543,1 51716U 22016C   22175.91668981 -.00041746  00000-0 -26193-2 0  9993,2 51716  53.2180 286.4488 0001851  41.1968 254.1459 15.08850523  1306,6917.848000000001,95.437,540.994,538.433,0.0
51716.0,STARLINK-3543,PAYLOAD,2022-06-25 14:00:01,15.08840701,0.0001868,53.2183,283.4567,42.3645,276.0959,-0.00034088,-5.709e-05,0.0,0 STARLINK-3543,1 51716U 22016C   22176.58334491 -.00005709  00000-0 -34088-3 0  9995,2 51716  53.2183 283.4567 0001868  42.3645 276.0959 15.08840701  1302,6917.878000000002,95.438,541.036,538.451,0.0
51716.0,STARLINK-3543,PAYLOAD,2022-06-25 16:00:00,15.08828332,0.0001891,53.2184,283.0829,41.6774,9.6848,0.0015003,0.00023662,0.0,0 STARLINK-3543,1 51716U 22016C   22176.66667824  .00023662  00000-0  15003-2 0  9994,2 51716  53.2184 283.0829 0001891  41.6774   9.6848 15.08828332 20237,6917.916,95.438,541.089,538.4730000000002,0.0
51716.0,STARLINK-3543,PAYLOAD,2022-06-25 22:00:00,15.08866221,0.0001826,53.218,281.9598,41.1528,288.9033,-0.0016816,-0.00026971,0.0,0 STARLINK-3543,1 51716U 22016C   22176.91667824 -.00026971  00000-0 -16816-2 0  9993,2 51716  53.2180 281.9598 0001826  41.1528 288.9033 15.08866221  1307,6917.8,95.436,540.928,538.4019999999998,0.0
51716.0,STARLINK-3543,PAYLOAD,2022-06-26 14:00:01,15.0885247,0.0001902,53.2181,278.9678,44.2057,309.1497,-0.0016679,-0.00026744,0.0,0 STARLINK-3543,1 51716U 22016C   22177.58335648 -.00026744  00000-0 -16679-2 0  9998,2 51716  53.2181 278.9678 0001902  44.2057 309.1497 15.08852470  1300,6917.842,95.437,541.023,538.391,0.0
51716.0,STARLINK-3543,PAYLOAD,2022-06-26 22:00:00,15.08843564,0.0001798,53.2177,277.4708,42.3041,322.5843,-0.0025089,-0.0004,0.0,0 STARLINK-3543,1 51716U 22016C   22177.91667824 -.00040000  00000-0 -25089-2 0  9995,2 51716  53.2177 277.4708 0001798  42.3041 322.5843 15.08843564 20419,6917.869000000002,95.437,540.9780000000002,538.491,0.0
